[
    {
        "OBJECT_NAME": "NAVSTAR 1 (OPS 5111)",
        "OBJECT_ID": "1978-020A",
        "EPOCH": "2025-03-01T08:44:31.862688",
        "MEAN_MOTION": 1.98072191,
        "ECCENTRICITY": 0.0080777,
        "INCLINATION": 64.0031,
        "RA_OF_ASC_NODE": 66.537,
        "ARG_OF_PERICENTER": 217.3608,
        "MEAN_ANOMALY": 142.1088,
        "EPHEMERIS_TYPE": 0,
        "CLASSIFICATION_TYPE": "U",
        "NORAD_CAT_ID": 10684,
        "ELEMENT_SET_NO": 999,
        "REV_AT_EPOCH": 32705,
        "BSTAR": 0,
        "MEAN_MOTION_DOT": 2.2e-07,
        "MEAN_MOTION_DDOT": 0
    },
    {
        "OBJECT_NAME": "NAVSTAR 2 (OPS 5112)",
        "OBJECT_ID": "1978-047A",
        "EPOCH": "2025-03-01T18:21:02.329920",
        "MEAN_MOTION": 2.01627371,
        "ECCENTRICITY": 0.0531782,
        "INCLINATION": 62.9884,
        "RA_OF_ASC_NODE": 287.7543,
        "ARG_OF_PERICENTER": 43.1514,
        "MEAN_ANOMALY": 134.4973,
        "EPHEMERIS_TYPE": 0,
        "CLASSIFICATION_TYPE": "U",
        "NORAD_CAT_ID": 10893,
        "ELEMENT_SET_NO": 999,
        "REV_AT_EPOCH": 34420,
        "BSTAR": 0,
        "MEAN_MOTION_DOT": 2.1e-07,
        "MEAN_MOTION_DDOT": 0
    },
    {
        "OBJECT_NAME": "NAVSTAR 3 (OPS 5113)",
        "OBJECT_ID": "1978-093A",
        "EPOCH": "2025-03-03T19:29:31.382592",
        "MEAN_MOTION": 1.93504491,
        "ECCENTRICITY": 0.0098706,
        "INCLINATION": 63.2825,
        "RA_OF_ASC_NODE": 314.1701,
        "ARG_OF_PERICENTER": 228.9158,
        "MEAN_ANOMALY": 315.3225,
        "EPHEMERIS_TYPE": 0,
        "CLASSIFICATION_TYPE": "U",
        "NORAD_CAT_ID": 11054,
        "ELEMENT_SET_NO": 999,
        "REV_AT_EPOCH": 33156,
        "BSTAR": 0,
        "MEAN_MOTION_DOT": -4.4e-07,
        "MEAN_MOTION_DDOT": 0
    },
    {
        "OBJECT_NAME": "NAVSTAR 4 (OPS 5114)",
        "OBJECT_ID": "1978-112A",
        "EPOCH": "2025-03-03T14:56:40.111872",
        "MEAN_MOTION": 1.9289552,
        "ECCENTRICITY": 0.0139395,
        "INCLINATION": 63.3932,
        "RA_OF_ASC_NODE": 85.6656,
        "ARG_OF_PERICENTER": 48.1987,
        "MEAN_ANOMALY": 149.1244,
        "EPHEMERIS_TYPE": 0,
        "CLASSIFICATION_TYPE": "U",
        "NORAD_CAT_ID": 11141,
        "ELEMENT_SET_NO": 999,
        "REV_AT_EPOCH": 22015,
        "BSTAR": 0,
        "MEAN_MOTION_DOT": 2.2e-07,
        "MEAN_MOTION_DDOT": 0
    },
    {
        "OBJECT_NAME": "NAVSTAR 5 (OPS 5117)",
        "OBJECT_ID": "1980-011A",
        "EPOCH": "2025-03-03T09:00:20.362752",
        "MEAN_MOTION": 2.00580309,
        "ECCENTRICITY": 0.0481572,
        "INCLINATION": 64.451,
        "RA_OF_ASC_NODE": 62.9997,
        "ARG_OF_PERICENTER": 204.8001,
        "MEAN_ANOMALY": 275.0181,
        "EPHEMERIS_TYPE": 0,
        "CLASSIFICATION_TYPE": "U",
        "NORAD_CAT_ID": 11690,
        "ELEMENT_SET_NO": 999,
        "REV_AT_EPOCH": 34428,
        "BSTAR": 0,
        "MEAN_MOTION_DOT": 4e-08,
        "MEAN_MOTION_DDOT": 0
    },
    {
        "OBJECT_NAME": "NAVSTAR 6 (OPS 5118)",
        "OBJECT_ID": "1980-032A",
        "EPOCH": "2025-03-03T08:52:13.485792",
        "MEAN_MOTION": 2.03456077,
        "ECCENTRICITY": 0.0543568,
        "INCLINATION": 62.0601,
        "RA_OF_ASC_NODE": 264.463,
        "ARG_OF_PERICENTER": 53.2669,
        "MEAN_ANOMALY": 132.0587,
        "EPHEMERIS_TYPE": 0,
        "CLASSIFICATION_TYPE": "U",
        "NORAD_CAT_ID": 11783,
        "ELEMENT_SET_NO": 999,
        "REV_AT_EPOCH": 33217,
        "BSTAR": 0,
        "MEAN_MOTION_DOT": 4.9e-07,
        "MEAN_MOTION_DDOT": 0
    },
    {
        "OBJECT_NAME": "NAVSTAR 8 (OPS 9794)",
        "OBJECT_ID": "1983-072A",
        "EPOCH": "2025-02-28T10:02:21.570144",
        "MEAN_MOTION": 1.91719389,
        "ECCENTRICITY": 0.0212756,
        "INCLINATION": 63.1025,
        "RA_OF_ASC_NODE": 82.499,
        "ARG_OF_PERICENTER": 54.4854,
        "MEAN_ANOMALY": 328.0958,
        "EPHEMERIS_TYPE": 0,
        "CLASSIFICATION_TYPE": "U",
        "NORAD_CAT_ID": 14189,
        "ELEMENT_SET_NO": 999,
        "REV_AT_EPOCH": 21764,
        "BSTAR": 0,
        "MEAN_MOTION_DOT": 5.1e-07,
        "MEAN_MOTION_DDOT": 0
    },
    {
        "OBJECT_NAME": "NAVSTAR 9 (USA 1)",
        "OBJECT_ID": "1984-059A",
        "EPOCH": "2025-03-02T07:45:46.577664",
        "MEAN_MOTION": 1.92302662,
        "ECCENTRICITY": 0.0233837,
        "INCLINATION": 63.2389,
        "RA_OF_ASC_NODE": 77.9143,
        "ARG_OF_PERICENTER": 51.6964,
        "MEAN_ANOMALY": 25.197,
        "EPHEMERIS_TYPE": 0,
        "CLASSIFICATION_TYPE": "U",
        "NORAD_CAT_ID": 15039,
        "ELEMENT_SET_NO": 999,
        "REV_AT_EPOCH": 28905,
        "BSTAR": 0,
        "MEAN_MOTION_DOT": 2.7e-07,
        "MEAN_MOTION_DDOT": 0
    },
    {
        "OBJECT_NAME": "NAVSTAR 10 (USA 5)",
        "OBJECT_ID": "1984-097A",
        "EPOCH": "2025-02-28T09:26:01.286880",
        "MEAN_MOTION": 1.92618875,
        "ECCENTRICITY": 0.0145088,
        "INCLINATION": 62.5125,
        "RA_OF_ASC_NODE": 305.2251,
        "ARG_OF_PERICENTER": 227.7747,
        "MEAN_ANOMALY": 278.9087,
        "EPHEMERIS_TYPE": 0,
        "CLASSIFICATION_TYPE": "U",
        "NORAD_CAT_ID": 15271,
        "ELEMENT_SET_NO": 999,
        "REV_AT_EPOCH": 28719,
        "BSTAR": 0,
        "MEAN_MOTION_DOT": -3e-08,
        "MEAN_MOTION_DDOT": 0
    },
    {
        "OBJECT_NAME": "NAVSTAR 11 (USA 10)",
        "OBJECT_ID": "1985-093A",
        "EPOCH": "2025-03-02T22:17:57.372000",
        "MEAN_MOTION": 1.89368837,
        "ECCENTRICITY": 0.0325918,
        "INCLINATION": 63.2973,
        "RA_OF_ASC_NODE": 97.6382,
        "ARG_OF_PERICENTER": 54.0804,
        "MEAN_ANOMALY": 125.4327,
        "EPHEMERIS_TYPE": 0,
        "CLASSIFICATION_TYPE": "U",
        "NORAD_CAT_ID": 16129,
        "ELEMENT_SET_NO": 999,
        "REV_AT_EPOCH": 22037,
        "BSTAR": 0,
        "MEAN_MOTION_DOT": 3.5e-07,
        "MEAN_MOTION_DDOT": 0
    },
    {
        "OBJECT_NAME": "NAVSTAR 13 (USA 35)",
        "OBJECT_ID": "1989-013A",
        "EPOCH": "2025-03-03T15:09:09.463392",
        "MEAN_MOTION": 1.85325277,
        "ECCENTRICITY": 0.0042764,
        "INCLINATION": 54.7356,
        "RA_OF_ASC_NODE": 110.5018,
        "ARG_OF_PERICENTER": 239.5573,
        "MEAN_ANOMALY": 122.2976,
        "EPHEMERIS_TYPE": 0,
        "CLASSIFICATION_TYPE": "U",
        "NORAD_CAT_ID": 19802,
        "ELEMENT_SET_NO": 999,
        "REV_AT_EPOCH": 25041,
        "BSTAR": 0,
        "MEAN_MOTION_DOT": 1.1e-07,
        "MEAN_MOTION_DDOT": 0
    },
    {
        "OBJECT_NAME": "NAVSTAR 14 (USA 38)",
        "OBJECT_ID": "1989-044A",
        "EPOCH": "2025-03-03T16:13:20.656128",
        "MEAN_MOTION": 1.88858465,
        "ECCENTRICITY": 0.002446,
        "INCLINATION": 53.5759,
        "RA_OF_ASC_NODE": 256.814,
        "ARG_OF_PERICENTER": 198.6124,
        "MEAN_ANOMALY": 172.1992,
        "EPHEMERIS_TYPE": 0,
        "CLASSIFICATION_TYPE": "U",
        "NORAD_CAT_ID": 20061,
        "ELEMENT_SET_NO": 999,
        "REV_AT_EPOCH": 25292,
        "BSTAR": 0,
        "MEAN_MOTION_DOT": 4.1e-07,
        "MEAN_MOTION_DDOT": 0
    },
    {
        "OBJECT_NAME": "NAVSTAR 15 (USA 42)",
        "OBJECT_ID": "1989-064A",
        "EPOCH": "2025-03-03T06:39:43.097760",
        "MEAN_MOTION": 1.8608799,
        "ECCENTRICITY": 0.0012265,
        "INCLINATION": 54.6481,
        "RA_OF_ASC_NODE": 105.4579,
        "ARG_OF_PERICENTER": 310.4277,
        "MEAN_ANOMALY": 111.0671,
        "EPHEMERIS_TYPE": 0,
        "CLASSIFICATION_TYPE": "U",
        "NORAD_CAT_ID": 20185,
        "ELEMENT_SET_NO": 999,
        "REV_AT_EPOCH": 24744,
        "BSTAR": 0,
        "MEAN_MOTION_DOT": 1.4e-07,
        "MEAN_MOTION_DDOT": 0
    }
]