10684,NAVSTAR 1 (OPS 5111),1978,727.01,-1.0,-,64.0,Inactive,0,MEO,USA,USA,Unknown,Unknown,Unknown,1 10684U 78020A   25060.36425767  .00000022  00000+0  00000+0 0  9991,2 10684  64.0031  66.5370 0080777 217.3608 142.1088  1.98072191327057,1.98072191,0.0080777,MEO
10893,NAVSTAR 2 (OPS 5112),1978,714.19,-1.0,-,62.99,Inactive,0,MEO,USA,USA,Unknown,Unknown,Unknown,1 10893U 78047A   25060.76461030  .00000021  00000+0  00000+0 0  9998,2 10893  62.9884 287.7543 0531782  43.1514 134.4973  2.01627371344203,2.01627371,0.0531782,MEO
11054,NAVSTAR 3 (OPS 5113),1978,744.17,-1.0,-,63.28,Inactive,0,MEO,USA,USA,Unknown,Unknown,Unknown,1 11054U 78093A   25062.81216878 -.00000044  00000+0  00000+0 0  9991,2 11054  63.2825 314.1701 0098706 228.9158 315.3225  1.93504491331566,1.93504491,0.0098706,MEO
11141,NAVSTAR 4 (OPS 5114),1978,746.52,-1.0,-,63.39,Inactive,0,MEO,USA,USA,Unknown,Unknown,Unknown,1 11141U 78112A   25062.62268648  .00000022  00000+0  00000+0 0  9996,2 11141  63.3932  85.6656 0139395  48.1987 149.1244  1.92895520220155,1.9289552,0.0139395,MEO
19802,NAVSTAR 13 (USA 35),1989,777.01,-1.0,-,54.73,Inactive,0,MEO,USA,USA,Unknown,Unknown,Unknown,1 19802U 89013A   25062.63135953  .00000011  00000+0  00000+0 0  9991,2 19802  54.7356 110.5018 0042764 239.5573 122.2976  1.85325277250416,1.85325277,0.0042764,MEO
11690,NAVSTAR 5 (OPS 5117),1980,717.92,-1.0,-,64.45,Inactive,0,MEO,USA,USA,Unknown,Unknown,Unknown,1 11690U 80011A   25062.37523568  .00000004  00000+0  00000+0 0  9993,2 11690  64.4510  62.9997 0481572 204.8001 275.0181  2.00580309344285,2.00580309,0.0481572,MEO
11783,NAVSTAR 6 (OPS 5118),1980,707.77,-1.0,-,62.06,Inactive,0,MEO,USA,USA,Unknown,Unknown,Unknown,1 11783U 80032A   25062.36960053  .00000049  00000+0  00000+0 0  9991,2 11783  62.0601 264.4630 0543568  53.2669 132.0587  2.03456077332170,2.03456077,0.0543568,MEO
20061,NAVSTAR 14 (USA 38),1989,762.48,-1.0,-,53.58,Inactive,0,MEO,USA,USA,Unknown,Unknown,Unknown,1 20061U 89044A   25062.67593352  .00000041  00000+0  00000+0 0  9992,2 20061  53.5759 256.8140 0024460 198.6124 172.1992  1.88858465252922,1.88858465,0.002446,MEO
20185,NAVSTAR 15 (USA 42),1989,773.83,-1.0,-,54.65,Inactive,0,MEO,USA,USA,Unknown,Unknown,Unknown,1 20185U 89064A   25062.27758215  .00000014  00000+0  00000+0 0  9998,2 20185  54.6481 105.4579 0012265 310.4277 111.0671  1.86087990247443,1.8608799,0.0012265,MEO
14189,NAVSTAR 8 (OPS 9794),1983,751.1,-1.0,-,63.1,Inactive,0,MEO,USA,USA,Unknown,Unknown,Unknown,1 14189U 83072A   25059.41830521  .00000051  00000+0  00000+0 0  9992,2 14189  63.1025  82.4990 0212756  54.4854 328.0958  1.91719389217640,1.91719389,0.0212756,MEO
15039,NAVSTAR 9 (USA 1),1984,748.82,-1.0,-,63.24,Inactive,0,MEO,USA,USA,Unknown,Unknown,Unknown,1 15039U 84059A   25061.32345576  .00000027  00000+0  00000+0 0  9990,2 15039  63.2389  77.9143 0233837  51.6964  25.1970  1.92302662289058,1.92302662,0.0233837,MEO
15271,NAVSTAR 10 (USA 5),1984,747.59,-1.0,-,62.51,Inactive,0,MEO,USA,USA,Unknown,Unknown,Unknown,1 15271U 84097A   25059.39307045 -.00000003  00000+0  00000+0 0  9998,2 15271  62.5125 305.2251 0145088 227.7747 278.9087  1.92618875287194,1.92618875,0.0145088,MEO
16129,NAVSTAR 11 (USA 10),1985,760.42,-1.0,-,63.3,Inactive,0,MEO,USA,USA,Unknown,Unknown,Unknown,1 16129U 85093A   25061.92913625  .00000035  00000+0  00000+0 0  9991,2 16129  63.2973  97.6382 0325918  54.0804 125.4327  1.89368837220376,1.89368837,0.0325918,MEO
